[Satellite]
VERSION=1.1
NAME=HORYU-IV
NICKNAME=HORYU-IV
TLE1=1 41340U 16012D   17185.81473580  .00000439  00000-0  27095-4 0  9993
TLE2=2 41340  31.0065 356.7952 0014423 249.6516 110.2570 15.00611315 75666
